[{"OBJECT_NAME":"STARLINK-36158","OBJECT_ID":"2025-298F","EPOCH":"2026-03-09T21:39:48.216096","MEAN_MOTION":14.98330434,"ECCENTRICITY":0.00024965,"INCLINATION":70.0011,"RA_OF_ASC_NODE":13.7454,"ARG_OF_PERICENTER":273.3529,"MEAN_ANOMALY":86.7344,"EPHEMERIS_TYPE":0,"CLASSIFICATION_TYPE":"U","NORAD_CAT_ID":67080,"ELEMENT_SET_NO":999,"REV_AT_EPOCH":1325,"BSTAR":0.00042338517,"MEAN_MOTION_DOT":4.962e-5,"MEAN_MOTION_DDOT":0},{"OBJECT_NAME":"FENGYUN 1C DEB","OBJECT_ID":"1999-025AAZ","EPOCH":"2026-03-09T18:55:56.238240","MEAN_MOTION":14.48574419,"ECCENTRICITY":0.02668757,"INCLINATION":98.4447,"RA_OF_ASC_NODE":143.6319,"ARG_OF_PERICENTER":289.1846,"MEAN_ANOMALY":192.6872,"EPHEMERIS_TYPE":0,"CLASSIFICATION_TYPE":"U","NORAD_CAT_ID":30338,"ELEMENT_SET_NO":999,"REV_AT_EPOCH":99404,"BSTAR":0.00086398486,"MEAN_MOTION_DOT":5.053e-5,"MEAN_MOTION_DDOT":0}]
